FLOCK 4BE-35            
1 60558U 24149CU  26116.45095928  .00162677  00000+0  24520-2 0  9995
2 60558  97.3714 200.7255 0004249 153.7783 206.3687 15.54204981 94397
FLOCK 4BE-5             
1 60559U 24149CV  26115.76861609  .00015861  00000+0  41607-3 0  9994
2 60559  97.3841 199.3276 0004808 124.0729 236.0973 15.38728848 94211
FLOCK 4BE-12            
1 60560U 24149CW  26116.47337041  .00217560  00000+0  26367-2 0  9998
2 60560  97.3674 201.7564 0004529 170.2112 189.9234 15.59905233 94487
FLOCK 4BE-3             
1 60561U 24149CX  26115.80032295  .00019858  00000+0  50033-3 0  9996
2 60561  97.3697 199.2765 0005908 117.7140 242.4706 15.39911940 94272
FLOCK 4BE-19            
1 60563U 24149CZ  26115.80141901  .00020839  00000+0  48487-3 0  9994
2 60563  97.3738 200.5754 0005754 119.4862 240.6960 15.42315077 94346
FLOCK 4G-8              
1 62613U 25009E   26116.45707663  .00013860  00000+0  49830-3 0  9992
2 62613  97.4007 198.7193 0005647 131.5491 228.6234 15.28728577 71019
FLOCK 4G-13             
1 62621U 25009N   26115.75673693  .00057127  00000+0  15174-2 0  9995
2 62621  97.3974 198.3520 0005809 149.4558 210.7026 15.38058703 70920
FLOCK 4G-9              
1 62622U 25009P   26116.45874951  .00011311  00000+0  42729-3 0  9996
2 62622  97.3962 197.8256 0005944 137.1011 223.0692 15.27146014 70967
FLOCK 4G-7              
1 62624U 25009R   26116.48338184  .00013010  00000+0  47530-3 0  9997
2 62624  97.3948 198.1374 0004181 130.4806 229.6798 15.28223313 71002
FLOCK 4G-12             
1 62625U 25009S   26116.47257860  .00013786  00000+0  50547-3 0  9990
2 62625  97.4023 198.6079 0005721 128.2458 231.9297 15.28084399 71003
FLOCK 4G-11             
1 62629U 25009W   26115.94136635  .00012663  00000+0  46214-3 0  9990
2 62629  97.3926 197.7245 0004188 132.8066 227.3526 15.28264246 70931
PELICAN-2               
1 62631U 25009Y   26115.82478959  .00034681  00000+0  85505-3 0  9998
2 62631  97.3598 206.6308 0003558  98.4274 261.7376 15.40471304 71493
FLOCK 4G-26             
1 62633U 25009AA  26116.48464025  .00013544  00000+0  49283-3 0  9990
2 62633  97.4019 198.7533 0004978 121.8296 238.3428 15.28343302 71015
FLOCK 4G-28             
1 62634U 25009AB  26116.53663279  .00010460  00000+0  32039-3 0  9994
2 62634  97.4022 200.9263 0003393 118.4934 241.6651 15.33987371 71164
FLOCK 4G-20             
1 62636U 25009AD  26115.74613773  .00075643  00000+0  16522-2 0  9994
2 62636  97.3889 199.0002 0004246 171.9488 188.1830 15.43911633 71007
FLOCK 4G-24             
1 62637U 25009AE  26115.73352987  .00010738  00000+0  38522-3 0  9990
2 62637  97.4022 198.2505 0004599 114.4374 245.7346 15.28870309 70912
FLOCK 4G-3              
1 62639U 25009AG  26115.89438097  .00012103  00000+0  44164-3 0  9993
2 62639  97.4027 198.1839 0004469 119.8579 240.3106 15.28280879 70912
FLOCK 4G-27             
1 62641U 25009AJ  26116.50110377  .00014472  00000+0  52764-3 0  9999
2 62641  97.3939 198.2359 0003741 121.9117 238.2487 15.28268122 71004
FLOCK 4G-29             
1 62642U 25009AK  26116.49174042  .00013400  00000+0  48700-3 0  9992
2 62642  97.4023 198.7348 0004467 115.3092 244.8611 15.28388712 71008
FLOCK 4G-22             
1 62645U 25009AN  26115.78282461  .00010545  00000+0  38575-3 0  9997
2 62645  97.4011 198.0953 0003993 117.0545 243.1103 15.28236484 70913
FLOCK 4G-25             
1 62646U 25009AP  26116.48705135  .00011590  00000+0  42106-3 0  9990
2 62646  97.4014 198.8428 0003510 121.1798 238.9786 15.28439423 71023
FLOCK 4G-23             
1 62647U 25009AQ  26116.46170868  .00047095  00000+0  16787-2 0  9992
2 62647  97.3942 198.3267 0002734 136.4376 223.7080 15.28755204 71013
FLOCK 4G-34             
1 62650U 25009AT  26116.48110744  .00013210  00000+0  48260-3 0  9999
2 62650  97.3969 198.4017 0003418 121.2839 238.8736 15.28222954 71012
FLOCK 4G-21             
1 62651U 25009AU  26116.49271940  .00013724  00000+0  48141-3 0  9995
2 62651  97.3995 199.1716 0003244 123.0799 237.0754 15.29548520 71054
FLOCK 4G-31             
1 62652U 25009AV  26116.50116983  .00013575  00000+0  49831-3 0  9994
2 62652  97.3972 198.4105 0003022 123.9752 236.1775 15.28059794 71014
FLOCK 4G-4              
1 62659U 25009BC  26115.79332600  .00010029  00000+0  37185-3 0  9997
2 62659  97.3954 197.4473 0003834 132.3387 227.8177 15.27803809128500
FLOCK 4G-6              
1 62660U 25009BD  26116.44897366  .00012299  00000+0  44470-3 0  9993
2 62660  97.3947 198.1829 0004630 140.8796 219.2779 15.28576829128592
FLOCK 4G-2              
1 62661U 25009BE  26116.26192198  .00013088  00000+0  46941-3 0  9997
2 62661  97.4011 198.5323 0005436 138.1476 222.0180 15.28822942128597
FLOCK 4G-5              
1 62663U 25009BG  26116.22565470  .00011901  00000+0  41740-3 0  9996
2 62663  97.4024 198.7979 0004821 123.8397 236.3303 15.29583141 70993
FLOCK 4G-1              
1 62666U 25009BK  26116.49829439  .00013995  00000+0  50554-3 0  9994
2 62666  97.4025 198.7547 0005691 136.2110 223.9582 15.28571419 71014
FLOCK 4G-14             
1 62667U 25009BL  26116.50749660  .00013410  00000+0  49008-3 0  9998
2 62667  97.4025 198.6097 0005880 131.5567 228.6177 15.28198243 71009
FLOCK 4G-10             
1 62670U 25009BP  26116.45662840  .00012195  00000+0  44553-3 0  9999
2 62670  97.3929 197.9536 0005697 145.3251 214.8361 15.28233918128637
FLOCK 4G-36             
1 62675U 25009BU  26115.79817374  .00011130  00000+0  40583-3 0  9991
2 62675  97.4016 197.8251 0006074 137.3786 222.7926 15.28318127 70892
FLOCK 4G-15             
1 62678U 25009BX  26116.46255174  .00012695  00000+0  46199-3 0  9999
2 62678  97.4022 198.6193 0006238 132.9318 227.2445 15.28347844128641
FLOCK 4G-30             
1 62679U 25009BY  26116.45309963  .00048275  00000+0  17287-2 0  9993
2 62679  97.3924 197.9724 0005549 148.8595 211.2974 15.28587745128636
FLOCK 4G-18             
1 62680U 25009BZ  26116.26391119  .00012947  00000+0  47151-3 0  9999
2 62680  97.4016 198.2508 0006506 143.8526 216.3154 15.28318054128606
FLOCK 4G-17             
1 62681U 25009CA  26116.49750372  .00014141  00000+0  51213-3 0  9997
2 62681  97.3930 198.2025 0005863 146.2097 213.9518 15.28484377128654
FLOCK 4G-33             
1 62685U 25009CE  26116.48240733  .00007859  00000+0  31915-3 0  9990
2 62685  97.3949 196.9703 0006779 141.6793 218.4927 15.24831331 70927
PELICAN-3               
1 65315U 25188A   26116.47945044  .00010603  00000+0  26217-3 0  9997
2 65315  97.1985 193.4127 0002823 131.2834 228.8656 15.40635537 37359
PELICAN-4               
1 65316U 25188B   26115.78020165  .00001128  00000+0  29711-4 0  9994
2 65316  97.2049 192.8692 0005256 163.5854 196.5564 15.40614772 37240
PELICAN-5               
1 66667U 25276B   26115.78501603  .00003973  00000+0  14608-3 0  9991
2 66667  97.4167 190.9552 0004539 149.4728 210.6777 15.28471228 22514
PELICAN-6               
1 66703U 25276AP  26115.91809382  .00006852  00000+0  24704-3 0  9999
2 66703  97.4158 191.2462 0002785  62.6463 297.5060 15.28856215 22547
FLOCK 4H-1              
1 66704U 25276AQ  26116.51140709  .00007332  00000+0  34384-3 0  9997
2 66704  97.4194 191.0328 0003487 122.3495 237.8078 15.19957219 22582
FLOCK 4H-2              
1 66705U 25276AR  26116.43286909  .00007878  00000+0  36647-3 0  9991
2 66705  97.4189 190.9771 0002694 120.3863 239.7638 15.20216160 22570
FLOCK 4H-3              
1 66706U 25276AS  26116.44284639  .00008168  00000+0  38948-3 0  9990
2 66706  97.4256 190.9451 0004597 161.8297 198.3103 15.19340878 22564
FLOCK 4H-4              
1 66707U 25276AT  26115.74235719  .00006589  00000+0  31716-3 0  9999
2 66707  97.4241 190.1690 0005089 167.4430 192.6932 15.19086807 22458
FLOCK 4H-5              
1 66708U 25276AU  26116.44054314  .00007902  00000+0  36980-3 0  9996
2 66708  97.4194 190.9791 0002230 115.6658 244.4807 15.20009162 22579
FLOCK 4H-6              
1 66709U 25276AV  26116.46990131  .00007502  00000+0  35460-3 0  9993
2 66709  97.4243 191.0369 0004418 136.6813 223.4770 15.19674413 22575
FLOCK 4H-7              
1 66710U 25276AW  26116.43895478  .00007732  00000+0  36815-3 0  9990
2 66710  97.4202 190.8370 0002414 168.7509 191.3780 15.19418485 22561
FLOCK 4H-8              
1 66711U 25276AX  26116.50063448  .00008146  00000+0  38671-3 0  9995
2 66711  97.4241 190.9941 0003780 171.1368 188.9934 15.19498645 22578
FLOCK 4H-9              
1 66712U 25276AY  26116.46414068  .00007790  00000+0  36683-3 0  9994
2 66712  97.4234 191.0270 0004426 142.0318 218.1230 15.19794307 22577
FLOCK 4H-10             
1 66713U 25276AZ  26116.45750583  .00007351  00000+0  35205-3 0  9991
2 66713  97.4207 190.8282 0005045 165.1056 195.0328 15.19223017 22566
FLOCK 4H-11             
1 66714U 25276BA  26115.76309905  .00014101  00000+0  63474-3 0  9993
2 66714  97.4217 190.4161 0003497 172.2023 187.9268 15.21187207 22478
FLOCK 4H-12             
1 66715U 25276BB  26116.51917845  .00007236  00000+0  34055-3 0  9990
2 66715  97.4204 191.0402 0003523 127.1813 232.9744 15.19838701 22891
FLOCK 4H-13             
1 66716U 25276BC  26115.70970337  .00006197  00000+0  29002-3 0  9997
2 66716  97.4238 190.3601 0002854 112.2910 247.8628 15.20093608 22461
FLOCK 4H-14             
1 66717U 25276BD  26115.88663510  .00008086  00000+0  37410-3 0  9990
2 66717  97.4221 190.5536 0002502 109.6616 250.4890 15.20399322 21749
FLOCK 4H-15             
1 66718U 25276BE  26116.47767328  .00007947  00000+0  38311-3 0  9995
2 66718  97.4236 190.8554 0004519 175.9116 184.2156 15.18973351 22567
FLOCK 4H-16             
1 66719U 25276BF  26116.46287291  .00007924  00000+0  37981-3 0  9998
2 66719  97.4252 190.9061 0004852 165.4221 194.7154 15.19171475 22563
FLOCK 4H-18             
1 66721U 25276BH  26116.46680669  .00007627  00000+0  36595-3 0  9997
2 66721  97.4196 190.7883 0003771 183.6319 176.4889 15.19153018 22567
